$$SOE
2461302.500000000, A.D. 2026-Sep-19 00:00:00.0000, 8.418488339695182E+08, -4.202199243191700E+09, 8.409090264552460E+08,
2461309.500000000, A.D. 2026-Sep-26 00:00:00.0000, 8.454451903613328E+08, -4.201293370057149E+09, 8.404783157309966E+08,
2461316.500000000, A.D. 2026-Oct-03 00:00:00.0000, 8.490410787876581E+08, -4.200385099601309E+09, 8.400471148349692E+08,
2461323.500000000, A.D. 2026-Oct-10 00:00:00.0000, 8.526364967612134E+08, -4.199474434033440E+09, 8.396154239688258E+08,
2461330.500000000, A.D. 2026-Oct-17 00:00:00.0000, 8.562314421754999E+08, -4.198561375700439E+09, 8.391832433109863E+08,
2461337.500000000, A.D. 2026-Oct-24 00:00:00.0000, 8.598259132429614E+08, -4.197645927113794E+09, 8.387505730144341E+08,
2461344.500000000, A.D. 2026-Oct-31 00:00:00.0000, 8.634199085213599E+08, -4.196728091139265E+09, 8.383174131824898E+08,
2461351.500000000, A.D. 2026-Nov-07 00:00:00.0000, 8.670134273674276E+08, -4.195807871275197E+09, 8.378837637976671E+08,
2461358.500000000, A.D. 2026-Nov-14 00:00:00.0000, 8.706064710186725E+08, -4.194885271132047E+09, 8.374496246579158E+08,
2461365.500000000, A.D. 2026-Nov-21 00:00:00.0000, 8.741990424915866E+08, -4.193960292431252E+09, 8.370149955423704E+08,
2461372.500000000, A.D. 2026-Nov-28 00:00:00.0000, 8.777911442981610E+08, -4.193032934531483E+09, 8.365798764525893E+08,
2461379.500000000, A.D. 2026-Dec-05 00:00:00.0000, 8.813827776002527E+08, -4.192103196138638E+09, 8.361442675439503E+08,
2461386.500000000, A.D. 2026-Dec-12 00:00:00.0000, 8.849739429667135E+08, -4.191171076088580E+09, 8.357081689866133E+08,
2461393.500000000, A.D. 2026-Dec-19 00:00:00.0000, 8.885646408460327E+08, -4.190236573196186E+09, 8.352715809299140E+08,
2461400.500000000, A.D. 2026-Dec-26 00:00:00.0000, 8.921548716120530E+08, -4.189299686038798E+09, 8.348345035125514E+08,
2461407.500000000, A.D. 2027-Jan-02 00:00:00.0000, 8.957446354583391E+08, -4.188360412865101E+09, 8.343969368778239E+08,
2461414.500000000, A.D. 2027-Jan-09 00:00:00.0000, 8.993339322575315E+08, -4.187418751609430E+09, 8.339588811849716E+08,
2461421.500000000, A.D. 2027-Jan-16 00:00:00.0000, 9.029227614199702E+08, -4.186474700002911E+09, 8.335203366141692E+08,
2461428.500000000, A.D. 2027-Jan-23 00:00:00.0000, 9.065111217961725E+08, -4.185528255821266E+09, 8.330813033577460E+08,
2461435.500000000, A.D. 2027-Jan-30 00:00:00.0000, 9.100990118092892E+08, -4.184579417317250E+09, 8.326417815764636E+08,
2461442.500000000, A.D. 2027-Feb-06 00:00:00.0000, 9.136864302406279E+08, -4.183628183497852E+09, 8.322017713096033E+08,
2461449.500000000, A.D. 2027-Feb-13 00:00:00.0000, 9.172733772063704E+08, -4.182674553026705E+09, 8.317612724806250E+08,
2461456.500000000, A.D. 2027-Feb-20 00:00:00.0000, 9.208598529602883E+08, -4.181718522542808E+09, 8.313202851503781E+08,
2461463.500000000, A.D. 2027-Feb-27 00:00:00.0000, 9.244458559174216E+08, -4.180760087609284E+09, 8.308788096270187E+08,
2461470.500000000, A.D. 2027-Mar-06 00:00:00.0000, 9.280313829162232E+08, -4.179799244369590E+09, 8.304368463127227E+08,
2461477.500000000, A.D. 2027-Mar-13 00:00:00.0000, 9.316164301186230E+08, -4.178835989861756E+09, 8.299943956012710E+08,
2461484.500000000, A.D. 2027-Mar-20 00:00:00.0000, 9.352009934184471E+08, -4.177870321825281E+09, 8.295514578616972E+08,
2461491.500000000, A.D. 2027-Mar-27 00:00:00.0000, 9.387850685601628E+08, -4.176902238549621E+09, 8.291080334444655E+08,
2461498.500000000, A.D. 2027-Apr-03 00:00:00.0000, 9.423686511708429E+08, -4.175931738812026E+09, 8.286641226875702E+08,
2461505.500000000, A.D. 2027-Apr-10 00:00:00.0000, 9.459517367665920E+08, -4.174958821881639E+09, 8.282197259187341E+08,
2461512.500000000, A.D. 2027-Apr-17 00:00:00.0000, 9.495343207555109E+08, -4.173983487604192E+09, 8.277748434504814E+08,
2461519.500000000, A.D. 2027-Apr-24 00:00:00.0000, 9.531163985164117E+08, -4.173005736629433E+09, 8.273294755557011E+08,
2461526.500000000, A.D. 2027-May-01 00:00:00.0000, 9.566979658529161E+08, -4.172025570753503E+09, 8.268836223985003E+08,
2461533.500000000, A.D. 2027-May-08 00:00:00.0000, 9.602790201303365E+08, -4.171042992627838E+09, 8.264372839533069E+08,
2461540.500000000, A.D. 2027-May-15 00:00:00.0000, 9.638595605984592E+08, -4.170058003881195E+09, 8.259904601274737E+08,
2461547.500000000, A.D. 2027-May-22 00:00:00.0000, 9.674395863363726E+08, -4.169070604246370E+09, 8.255431510190306E+08,
2461554.500000000, A.D. 2027-May-29 00:00:00.0000, 9.710190951752650E+08, -4.168080793159897E+09, 8.250953568818754E+08,
2461561.500000000, A.D. 2027-Jun-05 00:00:00.0000, 9.745980844840292E+08, -4.167088570702944E+09, 8.246470779732846E+08,
2461568.500000000, A.D. 2027-Jun-12 00:00:00.0000, 9.781765518101498E+08, -4.166093937451654E+09, 8.241983145032538E+08,
2461575.500000000, A.D. 2027-Jun-19 00:00:00.0000, 9.817544950448478E+08, -4.165096894171896E+09, 8.237490666397681E+08,
2461582.500000000, A.D. 2027-Jun-26 00:00:00.0000, 9.853319123918997E+08, -4.164097441619776E+09, 8.232993345232011E+08,
2461589.500000000, A.D. 2027-Jul-03 00:00:00.0000, 9.889088022722613E+08, -4.163095580439594E+09, 8.228491182786106E+08,
2461596.500000000, A.D. 2027-Jul-10 00:00:00.0000, 9.924851632013366E+08, -4.162091311150527E+09, 8.223984180235068E+08,
2461603.500000000, A.D. 2027-Jul-17 00:00:00.0000, 9.960609936752424E+08, -4.161084634260894E+09, 8.219472338648331E+08,
2461610.500000000, A.D. 2027-Jul-24 00:00:00.0000, 9.996362922224916E+08, -4.160075550572816E+09, 8.214955658659257E+08,
2461617.500000000, A.D. 2027-Jul-31 00:00:00.0000, 1.003211058032529E+09, -4.159064061441761E+09, 8.210434139651917E+08,
2461624.500000000, A.D. 2027-Aug-07 00:00:00.0000, 1.006785291960400E+09, -4.158050167839223E+09, 8.205907779592161E+08,
2461631.500000000, A.D. 2027-Aug-14 00:00:00.0000, 1.010358995606423E+09, -4.157033868471880E+09, 8.201376577407658E+08,
2461638.500000000, A.D. 2027-Aug-21 00:00:00.0000, 1.013932169089094E+09, -4.156015160321378E+09, 8.196840534600803E+08,
2461645.500000000, A.D. 2027-Aug-28 00:00:00.0000, 1.017504810942284E+09, -4.154994040401557E+09, 8.192299653930796E+08,
2461652.500000000, A.D. 2027-Sep-04 00:00:00.0000, 1.021076918955574E+09, -4.153970506230785E+09, 8.187753938291850E+08,
2461659.500000000, A.D. 2027-Sep-11 00:00:00.0000, 1.024648490562431E+09, -4.152944555680722E+09, 8.183203390524862E+08,
2461666.500000000, A.D. 2027-Sep-18 00:00:00.0000, 1.028219522909386E+09, -4.151916186851574E+09, 8.178648013506593E+08,
2461673.500000000, A.D. 2027-Sep-25 00:00:00.0000, 1.031790012835091E+09, -4.150885398051255E+09, 8.174087810240401E+08,
2461680.500000000, A.D. 2027-Oct-02 00:00:00.0000, 1.035359956834329E+09, -4.149852187850539E+09, 8.169522783899544E+08,
2461687.500000000, A.D. 2027-Oct-09 00:00:00.0000, 1.038929351029462E+09, -4.148816555218317E+09, 8.164952937796164E+08,
2461694.500000000, A.D. 2027-Oct-16 00:00:00.0000, 1.042498191212625E+09, -4.147778499791430E+09, 8.160378275171080E+08,
2461701.500000000, A.D. 2027-Oct-23 00:00:00.0000, 1.046066473218632E+09, -4.146738022284348E+09, 8.155798798559310E+08,
2461708.500000000, A.D. 2027-Oct-30 00:00:00.0000, 1.049634194003483E+09, -4.145695124428042E+09, 8.151214508885123E+08,
2461715.500000000, A.D. 2027-Nov-06 00:00:00.0000, 1.053201352265110E+09, -4.144649807309616E+09, 8.146625406274605E+08,
2461722.500000000, A.D. 2027-Nov-13 00:00:00.0000, 1.056767946621035E+09, -4.143602070188680E+09, 8.142031492709240E+08,
2461729.500000000, A.D. 2027-Nov-20 00:00:00.0000, 1.060333974244840E+09, -4.142551911976162E+09, 8.137432772072542E+08,
2461736.500000000, A.D. 2027-Nov-27 00:00:00.0000, 1.063899431579049E+09, -4.141499332411007E+09, 8.132829248529108E+08,
2461743.500000000, A.D. 2027-Dec-04 00:00:00.0000, 1.067464315100896E+09, -4.140444332020704E+09, 8.128220925839150E+08,
2461750.500000000, A.D. 2027-Dec-11 00:00:00.0000, 1.071028621590389E+09, -4.139386911829580E+09, 8.123607807326355E+08,
2461757.500000000, A.D. 2027-Dec-18 00:00:00.0000, 1.074592348175676E+09, -4.138327073153831E+09, 8.118989895970397E+08,
2461764.500000000, A.D. 2027-Dec-25 00:00:00.0000, 1.078155492307679E+09, -4.137264817485360E+09, 8.114367194483880E+08,
2461771.500000000, A.D. 2028-Jan-01 00:00:00.0000, 1.081718051705428E+09, -4.136200146449742E+09, 8.109739705348715E+08,
$$EOE